NORAD_CAT_ID,OBJECT_NAME,OBJECT_TYPE,EPOCH,MEAN_MOTION,ECCENTRICITY,INCLINATION,RA_OF_ASC_NODE,ARG_OF_PERICENTER,MEAN_ANOMALY,BSTAR,MEAN_MOTION_DOT,MEAN_MOTION_DDOT,TLE_LINE0,TLE_LINE1,TLE_LINE2,SEMIMAJOR_AXIS,PERIOD,APOGEE,PERIGEE,DECAYED
53249.0,STARLINK-4128,PAYLOAD,2024-01-30 04:47:32,15.08811257,0.0002409,53.2179,48.5008,115.7643,244.3598,0.00036486,5.519e-05,0.0,0 STARLINK-4128,1 53249U 22086H   24030.19967991  .00005519  00000-0  36486-3 0  9991,2 53249  53.2179  48.5008 0002409 115.7643 244.3598 15.08811257 84712,6917.968,95.439,541.5,538.167,0.0
53249.0,STARLINK-4128,PAYLOAD,2024-01-30 11:09:04,15.0884393,0.0001982,53.2183,47.3124,116.6004,243.5191,-0.00014546,-2.603e-05,0.0,0 STARLINK-4128,1 53249U 22086H   24030.46463480 -.00002603  00000-0 -14546-3 0  9991,2 53249  53.2183  47.3124 0001982 116.6004 243.5191 15.08843930 84756,6917.868,95.437,541.104,538.362,0.0
53249.0,STARLINK-4128,PAYLOAD,2024-01-31 06:13:42,15.08839225,0.0002511,53.2178,43.7494,130.9266,229.1943,-4.3249e-05,-9.77e-06,0.0,0 STARLINK-4128,1 53249U 22086H   24031.25951611 -.00000977  00000-0 -43249-4 0  9992,2 53249  53.2178  43.7494 0002511 130.9266 229.1943 15.08839225 85071,6917.883,95.438,541.485,538.011,0.0
53249.0,STARLINK-4128,PAYLOAD,2024-02-01 01:18:20,15.08836742,0.000177,53.2179,40.1805,103.9231,256.1958,2.2413e-05,6.9e-07,0.0,0 STARLINK-4128,1 53249U 22086H   24032.05440003  .00000069  00000-0  22413-4 0  9999,2 53249  53.2179  40.1805 0001770 103.9231 256.1958 15.08836742 84994,6917.89,95.438,540.98,538.531,0.0
53249.0,STARLINK-4128,PAYLOAD,2024-02-01 09:15:15,15.08838533,0.0001455,53.2174,38.6929,97.0874,263.0283,4.1514e-05,3.73e-06,0.0,0 STARLINK-4128,1 53249U 22086H   24032.38559911  .00000373  00000-0  41514-4 0  9995,2 53249  53.2174  38.6929 0001455  97.0874 263.0283 15.08838533 85241,6917.885,95.438,540.756,538.743,0.0
53249.0,STARLINK-4128,PAYLOAD,2024-02-02 04:19:53,15.08835656,0.0001506,53.2183,35.1262,94.0349,266.0815,5.9515e-05,6.59e-06,0.0,0 STARLINK-4128,1 53249U 22086H   24033.18048219  .00000659  00000-0  59515-4 0  9995,2 53249  53.2183  35.1262 0001506  94.0349 266.0815 15.08835656 85162,6917.894,95.438,540.801,538.717,0.0
53249.0,STARLINK-4128,PAYLOAD,2024-02-02 09:06:02,15.08842627,0.000162,53.2178,34.2323,92.1946,267.9232,0.00010117,1.323e-05,0.0,0 STARLINK-4128,1 53249U 22086H   24033.37919739  .00001323  00000-0  10117-3 0  9993,2 53249  53.2178  34.2323 0001620  92.1946 267.9232 15.08842627 85195,6917.872,95.437,540.858,538.617,0.0
53249.0,STARLINK-4128,PAYLOAD,2024-02-03 08:56:49,15.08845368,0.0001608,53.2186,29.7682,88.0634,272.0542,0.00010156,1.329e-05,0.0,0 STARLINK-4128,1 53249U 22086H   24034.37279549  .00001329  00000-0  10156-3 0  9991,2 53249  53.2186  29.7682 0001608  88.0634 272.0542 15.08845368 85540,6917.864,95.437,540.841,538.617,0.0
53249.0,STARLINK-4128,PAYLOAD,2024-02-04 04:01:27,15.08843851,0.0001602,53.2183,26.2038,94.1269,265.9907,8.3061e-06,-1.56e-06,0.0,0 STARLINK-4128,1 53249U 22086H   24035.16767809 -.00000156  00000-0  83061-5 0  9995,2 53249  53.2183  26.2038 0001602  94.1269 265.9907 15.08843851 85462,6917.869,95.437,540.842,538.625,0.0
53249.0,STARLINK-4128,PAYLOAD,2024-02-04 08:47:36,15.08847759,0.0001602,53.2187,25.3107,95.1326,264.9849,3.7839e-05,3.14e-06,0.0,0 STARLINK-4128,1 53249U 22086H   24035.36639453  .00000314  00000-0  37839-4 0  9996,2 53249  53.2187  25.3107 0001602  95.1326 264.9849 15.08847759 85698,6917.857,95.437,540.83,538.613,0.0
53249.0,STARLINK-4128,PAYLOAD,2024-02-05 05:27:37,15.08846244,0.0001696,53.2194,21.4447,99.4657,260.6527,1.2277e-05,-9.3e-07,0.0,0 STARLINK-4128,1 53249U 22086H   24036.22751483 -.00000093  00000-0  12277-4 0  9994,2 53249  53.2194  21.4447 0001696  99.4657 260.6527 15.08846244 85624,6917.861,95.437,540.9,538.553,0.0
53249.0,STARLINK-4128,PAYLOAD,2024-02-06 03:43:01,15.08840178,0.0001657,53.2193,17.2819,108.2294,251.8878,-1.6896e-05,-5.57e-06,0.0,0 STARLINK-4128,1 53249U 22086H   24037.15487884 -.00000557  00000-0 -16896-4 0  9995,2 53249  53.2193  17.2819 0001657 108.2294 251.8878 15.08840178 85768,6917.88,95.438,540.891,538.599,0.0
53249.0,STARLINK-4128,PAYLOAD,2024-02-06 05:18:24,15.08841593,0.0001677,53.2195,16.9849,108.0296,252.0879,9.6618e-07,-2.73e-06,0.0,0 STARLINK-4128,1 53249U 22086H   24037.22111760 -.00000273  00000-0  96618-6 0  9996,2 53249  53.2195  16.9849 0001677 108.0296 252.0879 15.08841593 85970,6917.876,95.437,540.901,538.58,0.0
53249.0,STARLINK-4128,PAYLOAD,2024-02-07 05:09:11,15.08844212,0.000146,53.2194,12.526,106.1694,253.9459,1.8192e-05,2e-08,0.0,0 STARLINK-4128,1 53249U 22086H   24038.21471596  .00000002  00000-0  18192-4 0  9990,2 53249  53.2194  12.5260 0001460 106.1694 253.9459 15.08844212 85929,6917.868,95.437,540.743,538.723,0.0
53249.0,STARLINK-4128,PAYLOAD,2024-02-07 14:41:30,15.08844576,0.0001397,53.2197,10.7407,85.9186,274.1966,8.6773e-06,-1.5e-06,0.0,0 STARLINK-4128,1 53249U 22086H   24038.61215627 -.00000150  00000-0  86773-5 0  9991,2 53249  53.2197  10.7407 0001397  85.9186 274.1966 15.08844576 86184,6917.866,95.437,540.698,538.765,0.0
53249.0,STARLINK-4128,PAYLOAD,2024-02-07 22:38:26,15.08836436,0.0002017,53.2196,9.2555,90.5581,269.5643,1.8026e-05,-1e-08,0.0,0 STARLINK-4128,1 53249U 22086H   24038.94336473 -.00000001  00000-0  18026-4 0  9990,2 53249  53.2196   9.2555 0002017  90.5581 269.5643 15.08836436 86233,6917.891,95.438,541.152,538.361,0.0
53249.0,STARLINK-4128,PAYLOAD,2024-02-08 01:49:13,15.08835629,0.0001947,53.2205,8.6702,121.405,238.7133,-1.8485e-05,-5.82e-06,0.0,0 STARLINK-4128,1 53249U 22086H   24039.07584595 -.00000582  00000-0 -18485-4 0  9999,2 53249  53.2205   8.6702 0001947 121.4050 238.7133 15.08835629 86052,6917.894,95.438,541.106,538.412,0.0
53249.0,STARLINK-4128,PAYLOAD,2024-02-08 04:59:59,15.08834846,0.0001637,53.2201,8.0707,105.7947,254.3226,-5.4633e-06,-3.75e-06,0.0,0 STARLINK-4128,1 53249U 22086H   24039.20832720 -.00000375  00000-0 -54633-5 0  9996,2 53249  53.2201   8.0707 0001637 105.7947 254.3226 15.08834846 86274,6917.896,95.438,540.894,538.629,0.0
53249.0,STARLINK-4128,PAYLOAD,2024-02-08 22:29:14,15.0883537,0.0001395,53.2191,4.7971,104.4518,255.6629,-3.2145e-05,-7.99e-06,0.0,0 STARLINK-4128,1 53249U 22086H   24039.93697110 -.00000799  00000-0 -32145-4 0  9991,2 53249  53.2191   4.7971 0001395 104.4518 255.6629 15.08835370 86385,6917.895,95.438,540.725,538.794,0.0
53249.0,STARLINK-4128,PAYLOAD,2024-02-09 03:15:23,15.08846067,0.00016,53.2191,3.9062,120.1303,239.9848,-2.2513e-05,-6.46e-06,0.0,0 STARLINK-4128,1 53249U 22086H   24040.13568422 -.00000646  00000-0 -22513-4 0  9997,2 53249  53.2191   3.9062 0001600 120.1303 239.9848 15.08846067 86218,6917.862,95.437,540.834,538.62,0.0
53249.0,STARLINK-4128,PAYLOAD,2024-02-09 04:50:46,15.08848035,0.0001366,53.2192,3.6084,102.6481,257.4664,3.7021e-05,3.01e-06,0.0,0 STARLINK-4128,1 53249U 22086H   24040.20192176  .00000301  00000-0  37021-4 0  9990,2 53249  53.2192   3.6084 0001366 102.6481 257.4664 15.08848035 86422,6917.856,95.437,540.666,538.776,0.0
53249.0,STARLINK-4128,PAYLOAD,2024-02-10 03:06:10,15.08834983,0.000144,53.2189,359.4442,89.8339,270.2818,6.6365e-05,7.68e-06,0.0,0 STARLINK-4128,1 53249U 22086H   24041.12929245  .00000768  00000-0  66365-4 0  9997,2 53249  53.2189 359.4442 0001440  89.8339 270.2818 15.08834983 86363,6917.896,95.438,540.757,538.765,0.0
53249.0,STARLINK-4128,PAYLOAD,2024-02-10 04:41:33,15.08837671,0.0001447,53.2191,359.1473,87.7734,272.3423,9.0065e-05,1.146e-05,0.0,0 STARLINK-4128,1 53249U 22086H   24041.19553085  .00001146  00000-0  90065-4 0  9994,2 53249  53.2191 359.1473 0001447  87.7734 272.3423 15.08837671 86575,6917.888,95.438,540.754,538.751,0.0
53249.0,STARLINK-4128,PAYLOAD,2024-02-10 20:35:25,15.0883695,0.0001807,53.2201,356.1749,86.3794,273.7405,7.3797e-05,8.86e-06,0.0,0 STARLINK-4128,1 53249U 22086H   24041.85793451  .00000886  00000-0  73797-4 0  9993,2 53249  53.2201 356.1749 0001807  86.3794 273.7405 15.08836950 86676,6917.89,95.438,541.005,538.505,0.0
53249.0,STARLINK-4128,PAYLOAD,2024-02-11 06:07:43,15.08853185,0.0001517,53.2191,354.3866,81.6148,278.5016,9.407e-05,1.21e-05,0.0,0 STARLINK-4128,1 53249U 22086H   24042.25536209  .00001210  00000-0  94070-4 0  9993,2 53249  53.2191 354.3866 0001517  81.6148 278.5016 15.08853185 86538,6917.84,95.437,540.755,538.656,0.0
53249.0,STARLINK-4128,PAYLOAD,2024-02-12 02:47:44,15.0884758,0.0001907,53.2188,350.5236,68.0359,292.0836,0.0001015,1.328e-05,0.0,0 STARLINK-4128,1 53249U 22086H   24043.11648400  .00001328  00000-0  10150-3 0  9992,2 53249  53.2188 350.5236 0001907  68.0359 292.0836 15.08847580 86666,6917.857,95.437,541.041,538.403,0.0
53249.0,STARLINK-4128,PAYLOAD,2024-02-12 20:16:59,15.08845905,0.0001535,53.2193,347.2478,97.5467,262.57,-5.4558e-05,-1.156e-05,0.0,0 STARLINK-4128,1 53249U 22086H   24043.84512816 -.00001156  00000-0 -54558-4 0  9995,2 53249  53.2193 347.2478 0001535  97.5467 262.5700 15.08845905 86770,6917.862,95.437,540.789,538.665,0.0
53249.0,STARLINK-4128,PAYLOAD,2024-02-13 05:49:17,15.08846416,0.0001498,53.2188,345.4631,106.2708,253.8449,-3.9991e-05,-9.25e-06,0.0,0 STARLINK-4128,1 53249U 22086H   24044.24256512 -.00000925  00000-0 -39991-4 0  9995,2 53249  53.2188 345.4631 0001498 106.2708 253.8449 15.08846416 87030,6917.861,95.437,540.762,538.689,0.0
53249.0,STARLINK-4128,PAYLOAD,2024-02-13 20:07:44,15.08876574,0.0001562,53.2192,342.7866,117.4539,242.6612,-0.0002484,-4.243e-05,0.0,0 STARLINK-4128,1 53249U 22086H   24044.83871463 -.00004243  00000-0 -24840-3 0  9991,2 53249  53.2192 342.7866 0001562 117.4539 242.6612 15.08876574 86926,6917.769,95.435,540.714,538.553,0.0
53249.0,STARLINK-4128,PAYLOAD,2024-02-14 02:29:15,15.08876302,0.0001426,53.2196,341.5986,96.6191,263.4964,0.00012805,1.752e-05,0.0,0 STARLINK-4128,1 53249U 22086H   24045.10365606  .00001752  00000-0  12805-3 0  9997,2 53249  53.2196 341.5986 0001426  96.6191 263.4964 15.08876302 86965,6917.769,95.435,540.621,538.648,0.0
